[{"OBJECT_NAME":"STARLINK-32435","OBJECT_ID":"2024-175S","EPOCH":"2026-03-09T15:19:26.594400","MEAN_MOTION":15.30189251,"ECCENTRICITY":0.0001028,"INCLINATION":53.16,"RA_OF_ASC_NODE":194.431,"ARG_OF_PERICENTER":88.3553,"MEAN_ANOMALY":271.7566,"EPHEMERIS_TYPE":0,"CLASSIFICATION_TYPE":"U","NORAD_CAT_ID":61259,"ELEMENT_SET_NO":999,"REV_AT_EPOCH":8144,"BSTAR":-1.1637e-5,"MEAN_MOTION_DOT":-7.03e-6,"MEAN_MOTION_DDOT":0},{"OBJECT_NAME":"KSLV-II R\/B","OBJECT_ID":"2023-072H","EPOCH":"2026-03-09T20:13:26.441760","MEAN_MOTION":15.33109439,"ECCENTRICITY":0.00241884,"INCLINATION":97.4991,"RA_OF_ASC_NODE":274.152,"ARG_OF_PERICENTER":318.2938,"MEAN_ANOMALY":41.646,"EPHEMERIS_TYPE":0,"CLASSIFICATION_TYPE":"U","NORAD_CAT_ID":56750,"ELEMENT_SET_NO":999,"REV_AT_EPOCH":15516,"BSTAR":0.00028309532,"MEAN_MOTION_DOT":9.057e-5,"MEAN_MOTION_DDOT":0}]
